0 METEOR 2-17 DEB
1 29300U 88005P   13280.08023798  .00000646  00000-0  52214-3 0  5175
2 29300 082.5366 052.9070 0013008 246.1179 113.8731 13.88911460372817
0 METEOR 2-17 DEB
1 29300U 88005P   13283.10589546  .00000681  00000-0  55031-3 0  5189
2 29300 082.5382 050.4842 0013190 238.0679 121.9532 13.88916593373230
0 METEOR 2-17 DEB
1 29300U 88005P   13286.05948572  .00000755  00000-0  61152-3 0  5200
2 29300 082.5398 048.1138 0014498 218.4651 141.5706 13.88923162373649
0 METEOR 2-17 DEB
1 29300U 88005P   13288.07656790  .00000799  00000-0  64766-3 0  5215
2 29300 082.5405 046.4970 0015472 211.1886 148.8558 13.88927609373922
0 METEOR 2-17 DEB
1 29300U 88005P   13290.02160496  .00000892  00000-0  72452-3 0  5222
2 29300 082.5406 044.9372 0015279 210.6182 149.4351 13.88933411374196
0 METEOR 2-17 DEB
1 29300U 88005P   13292.03867372  .00000921  00000-0  74844-3 0  5233
2 29300 082.5405 043.3220 0015537 203.5166 156.5419 13.88937971374470
0 METEOR 2-17 DEB
1 29300U 88005P   13294.05573831  .00000948  00000-0  77069-3 0  5243
2 29300 082.5400 041.7052 0015521 199.4145 160.6473 13.88942502374756
